STARLINK-30533          
1 58037U 23156K   26068.56779664  .00020354  00000+0  69771-3 0  9998
2 58037  53.1581 168.7677 0001151  90.5230 269.5902 15.30188896135019
JINJUSAT-1B             
1 63210U 25052A   26068.66363707  .00019955  00000+0  68430-3 0  9998
2 63210  97.4113 325.4613 0005550  82.1930 277.9941 15.30194857 54866
